GLOBALSTAR M057         
1 25943U 99058A   25117.35484344 -.00000040  00000+0  48044-3 0  9992
2 25943  51.9955 132.4651 0002664 271.9487  88.1057 12.24818406160706
GLOBALSTAR M059         
1 25944U 99058B   25117.93539630  .00000015  00000+0  12563-2 0  9993
2 25944  52.0043 343.1210 0000626 126.3857 247.3611 11.99978941568012
GLOBALSTAR M056         
1 25945U 99058C   25117.88628715 -.00000128  00000+0 -47583-3 0  9999
2 25945  51.9990 346.5032 0001817  82.7009 290.2525 12.04778698156566
GLOBALSTAR M031         
1 25946U 99058D   25117.80222216 -.00000186  00000+0 -97157-3 0  9994
2 25946  51.9957 242.0809 0001882  95.3228  71.1632 12.16034048158415
GLOBALSTAR M039         
1 25961U 99062A   25117.88549077 -.00000059  00000+0  24936-3 0  9994
2 25961  51.9853  61.9227 0002225 236.7736 123.2918 12.62324551173860
GLOBALSTAR M034         
1 25962U 99062B   25117.36333127 -.00000035  00000+0  72982-3 0  9993
2 25962  51.9839 143.4999 0014126 304.1800 155.0239 11.79447539132393
GLOBALSTAR M029         
1 25963U 99062C   25117.80335138 -.00000049  00000+0  46244-3 0  9994
2 25963  51.9798 231.5575 0002279  33.6441 104.4555 11.99895371163079
GLOBALSTAR M061         
1 25964U 99062D   25117.82650191 -.00000038  00000+0  69127-3 0  9999
2 25964  51.9814 325.6638 0005408 223.9832 148.3617 11.76774144115251
